[{"OBJECT_NAME":"ONEWEB-0673","OBJECT_ID":"2023-029AN","EPOCH":"2026-03-18T03:16:12.727488","MEAN_MOTION":13.19724854,"ECCENTRICITY":0.00016734,"INCLINATION":87.9217,"RA_OF_ASC_NODE":323.1095,"ARG_OF_PERICENTER":85.4284,"MEAN_ANOMALY":274.704,"EPHEMERIS_TYPE":0,"CLASSIFICATION_TYPE":"U","NORAD_CAT_ID":55832,"ELEMENT_SET_NO":999,"REV_AT_EPOCH":14689,"BSTAR":5.8930337e-5,"MEAN_MOTION_DOT":3.7e-7,"MEAN_MOTION_DDOT":0},{"OBJECT_NAME":"ONEWEB-0674","OBJECT_ID":"2023-029AP","EPOCH":"2026-03-18T03:26:55.737888","MEAN_MOTION":13.14502969,"ECCENTRICITY":0.00013704,"INCLINATION":87.8963,"RA_OF_ASC_NODE":307.8971,"ARG_OF_PERICENTER":96.2081,"MEAN_ANOMALY":263.9204,"EPHEMERIS_TYPE":0,"CLASSIFICATION_TYPE":"U","NORAD_CAT_ID":55833,"ELEMENT_SET_NO":999,"REV_AT_EPOCH":14745,"BSTAR":-9.6124954e-5,"MEAN_MOTION_DOT":-2.3e-7,"MEAN_MOTION_DDOT":0},{"OBJECT_NAME":"ONEWEB-0675","OBJECT_ID":"2023-029AQ","EPOCH":"2026-03-18T03:37:50.058912","MEAN_MOTION":13.19725442,"ECCENTRICITY":0.00018929,"INCLINATION":87.9213,"RA_OF_ASC_NODE":323.1222,"ARG_OF_PERICENTER":73.1263,"MEAN_ANOMALY":287.0077,"EPHEMERIS_TYPE":0,"CLASSIFICATION_TYPE":"U","NORAD_CAT_ID":55834,"ELEMENT_SET_NO":999,"REV_AT_EPOCH":14691,"BSTAR":0.00016348157,"MEAN_MOTION_DOT":7.8e-7,"MEAN_MOTION_DDOT":0},{"OBJECT_NAME":"ONEWEB-0720","OBJECT_ID":"2023-029AR","EPOCH":"2026-03-18T03:26:28.216032","MEAN_MOTION":13.19725645,"ECCENTRICITY":0.00019579,"INCLINATION":87.9219,"RA_OF_ASC_NODE":323.1244,"ARG_OF_PERICENTER":89.9556,"MEAN_ANOMALY":270.1801,"EPHEMERIS_TYPE":0,"CLASSIFICATION_TYPE":"U","NORAD_CAT_ID":55835,"ELEMENT_SET_NO":999,"REV_AT_EPOCH":14683,"BSTAR":4.0618216e-5,"MEAN_MOTION_DOT":2.9e-7,"MEAN_MOTION_DDOT":0},{"OBJECT_NAME":"ONEWEB-0537","OBJECT_ID":"2023-043A","EPOCH":"2026-03-17T23:57:28.017216","MEAN_MOTION":13.1659357,"ECCENTRICITY":0.00016266,"INCLINATION":87.9013,"RA_OF_ASC_NODE":246.9037,"ARG_OF_PERICENTER":90.5742,"MEAN_ANOMALY":269.5576,"EPHEMERIS_TYPE":0,"CLASSIFICATION_TYPE":"U","NORAD_CAT_ID":56046,"ELEMENT_SET_NO":999,"REV_AT_EPOCH":14696,"BSTAR":0.00025614251,"MEAN_MOTION_DOT":1.11e-6,"MEAN_MOTION_DDOT":0},{"OBJECT_NAME":"ONEWEB-0538","OBJECT_ID":"2023-043B","EPOCH":"2026-03-17T23:48:21.328128","MEAN_MOTION":13.16594298,"ECCENTRICITY":0.00019122,"INCLINATION":87.9011,"RA_OF_ASC_NODE":246.9074,"ARG_OF_PERICENTER":93.3417,"MEAN_ANOMALY":266.7933,"EPHEMERIS_TYPE":0,"CLASSIFICATION_TYPE":"U","NORAD_CAT_ID":56047,"ELEMENT_SET_NO":999,"REV_AT_EPOCH":14697,"BSTAR":0.0001856499,"MEAN_MOTION_DOT":8.4e-7,"MEAN_MOTION_DDOT":0},{"OBJECT_NAME":"ONEWEB-0546","OBJECT_ID":"2023-043C","EPOCH":"2026-03-17T21:40:39.285408","MEAN_MOTION":13.16592333,"ECCENTRICITY":0.00014961,"INCLINATION":87.9017,"RA_OF_ASC_NODE":246.9233,"ARG_OF_PERICENTER":73.8506,"MEAN_ANOMALY":286.2789,"EPHEMERIS_TYPE":0,"CLASSIFICATION_TYPE":"U","NORAD_CAT_ID":56048,"ELEMENT_SET_NO":999,"REV_AT_EPOCH":14695,"BSTAR":7.18279e-7,"MEAN_MOTION_DOT":1.3e-7,"MEAN_MOTION_DDOT":0},{"OBJECT_NAME":"ONEWEB-0547","OBJECT_ID":"2023-043D","EPOCH":"2026-03-18T06:17:01.887360","MEAN_MOTION":13.2182608,"ECCENTRICITY":0.00018256,"INCLINATION":87.9163,"RA_OF_ASC_NODE":262.0977,"ARG_OF_PERICENTER":94.4496,"MEAN_ANOMALY":265.6847,"EPHEMERIS_TYPE":0,"CLASSIFICATION_TYPE":"U","NORAD_CAT_ID":56049,"ELEMENT_SET_NO":999,"REV_AT_EPOCH":14621,"BSTAR":-1.6919532e-5,"MEAN_MOTION_DOT":6.0e-8,"MEAN_MOTION_DDOT":0},{"OBJECT_NAME":"ONEWEB-0548","OBJECT_ID":"2023-043E","EPOCH":"2026-03-18T00:05:28.262112","MEAN_MOTION":13.16593226,"ECCENTRICITY":0.00013598,"INCLINATION":87.9013,"RA_OF_ASC_NODE":246.9023,"ARG_OF_PERICENTER":111.6634,"MEAN_ANOMALY":248.4642,"EPHEMERIS_TYPE":0,"CLASSIFICATION_TYPE":"U","NORAD_CAT_ID":56050,"ELEMENT_SET_NO":999,"REV_AT_EPOCH":14696,"BSTAR":0.00014045823,"MEAN_MOTION_DOT":6.7e-7,"MEAN_MOTION_DDOT":0},{"OBJECT_NAME":"ONEWEB-0549","OBJECT_ID":"2023-043F","EPOCH":"2026-03-18T06:06:21.568320","MEAN_MOTION":13.21828643,"ECCENTRICITY":0.00019315,"INCLINATION":87.9161,"RA_OF_ASC_NODE":262.1109,"ARG_OF_PERICENTER":93.077,"MEAN_ANOMALY":267.0585,"EPHEMERIS_TYPE":0,"CLASSIFICATION_TYPE":"U","NORAD_CAT_ID":56051,"ELEMENT_SET_NO":999,"REV_AT_EPOCH":14621,"BSTAR":0.00020129459,"MEAN_MOTION_DOT":9.6e-7,"MEAN_MOTION_DDOT":0},{"OBJECT_NAME":"ONEWEB-0550","OBJECT_ID":"2023-043G","EPOCH":"2026-03-18T05:47:24.288576","MEAN_MOTION":13.2182579,"ECCENTRICITY":0.00015665,"INCLINATION":87.9164,"RA_OF_ASC_NODE":262.1092,"ARG_OF_PERICENTER":94.9399,"MEAN_ANOMALY":265.1914,"EPHEMERIS_TYPE":0,"CLASSIFICATION_TYPE":"U","NORAD_CAT_ID":56052,"ELEMENT_SET_NO":999,"REV_AT_EPOCH":14621,"BSTAR":0.0002306226,"MEAN_MOTION_DOT":1.08e-6,"MEAN_MOTION_DDOT":0},{"OBJECT_NAME":"ONEWEB-0551","OBJECT_ID":"2023-043H","EPOCH":"2026-03-18T06:24:05.153184","MEAN_MOTION":13.15549585,"ECCENTRICITY":0.00019832,"INCLINATION":87.8929,"RA_OF_ASC_NODE":277.3805,"ARG_OF_PERICENTER":90.6048,"MEAN_ANOMALY":269.531,"EPHEMERIS_TYPE":0,"CLASSIFICATION_TYPE":"U","NORAD_CAT_ID":56053,"ELEMENT_SET_NO":999,"REV_AT_EPOCH":14444,"BSTAR":-0.00017715569,"MEAN_MOTION_DOT":-5.4e-7,"MEAN_MOTION_DDOT":0},{"OBJECT_NAME":"ONEWEB-0552","OBJECT_ID":"2023-043J","EPOCH":"2026-03-18T05:40:18.236352","MEAN_MOTION":13.21826695,"ECCENTRICITY":0.00018441,"INCLINATION":87.916,"RA_OF_ASC_NODE":262.1181,"ARG_OF_PERICENTER":100.6881,"MEAN_ANOMALY":259.4461,"EPHEMERIS_TYPE":0,"CLASSIFICATION_TYPE":"U","NORAD_CAT_ID":56054,"ELEMENT_SET_NO":999,"REV_AT_EPOCH":14621,"BSTAR":8.5938466e-5,"MEAN_MOTION_DOT":4.9e-7,"MEAN_MOTION_DDOT":0},{"OBJECT_NAME":"ONEWEB-0553","OBJECT_ID":"2023-043K","EPOCH":"2026-03-17T23:39:14.150880","MEAN_MOTION":13.16594071,"ECCENTRICITY":0.00013685,"INCLINATION":87.9012,"RA_OF_ASC_NODE":246.909,"ARG_OF_PERICENTER":87.6699,"MEAN_ANOMALY":272.4589,"EPHEMERIS_TYPE":0,"CLASSIFICATION_TYPE":"U","NORAD_CAT_ID":56055,"ELEMENT_SET_NO":999,"REV_AT_EPOCH":14697,"BSTAR":0.00017095168,"MEAN_MOTION_DOT":7.8e-7,"MEAN_MOTION_DDOT":0},{"OBJECT_NAME":"ONEWEB-0554","OBJECT_ID":"2023-043L","EPOCH":"2026-03-17T23:20:59.585568","MEAN_MOTION":13.1659411,"ECCENTRICITY":0.00014079,"INCLINATION":87.9013,"RA_OF_ASC_NODE":246.9217,"ARG_OF_PERICENTER":103.8456,"MEAN_ANOMALY":256.2832,"EPHEMERIS_TYPE":0,"CLASSIFICATION_TYPE":"U","NORAD_CAT_ID":56056,"ELEMENT_SET_NO":999,"REV_AT_EPOCH":14695,"BSTAR":2.8547547e-5,"MEAN_MOTION_DOT":2.4e-7,"MEAN_MOTION_DDOT":0},{"OBJECT_NAME":"ONEWEB-0555","OBJECT_ID":"2023-043M","EPOCH":"2026-03-18T00:15:42.948864","MEAN_MOTION":13.16594548,"ECCENTRICITY":0.00013759,"INCLINATION":87.9015,"RA_OF_ASC_NODE":246.8994,"ARG_OF_PERICENTER":78.963,"MEAN_ANOMALY":281.1656,"EPHEMERIS_TYPE":0,"CLASSIFICATION_TYPE":"U","NORAD_CAT_ID":56057,"ELEMENT_SET_NO":999,"REV_AT_EPOCH":14696,"BSTAR":-1.1424264e-5,"MEAN_MOTION_DOT":8.0e-8,"MEAN_MOTION_DDOT":0},{"OBJECT_NAME":"ONEWEB-0557","OBJECT_ID":"2023-043N","EPOCH":"2026-03-18T00:36:13.788576","MEAN_MOTION":13.16594728,"ECCENTRICITY":4.012e-5,"INCLINATION":87.9015,"RA_OF_ASC_NODE":246.9079,"ARG_OF_PERICENTER":110.5637,"MEAN_ANOMALY":249.5537,"EPHEMERIS_TYPE":0,"CLASSIFICATION_TYPE":"U","NORAD_CAT_ID":56058,"ELEMENT_SET_NO":999,"REV_AT_EPOCH":14696,"BSTAR":-0.0002041466,"MEAN_MOTION_DOT":-6.5e-7,"MEAN_MOTION_DDOT":0},{"OBJECT_NAME":"ONEWEB-0558","OBJECT_ID":"2023-043P","EPOCH":"2026-03-18T00:03:48.245472","MEAN_MOTION":13.21826956,"ECCENTRICITY":0.00022394,"INCLINATION":87.9161,"RA_OF_ASC_NODE":262.1576,"ARG_OF_PERICENTER":91.7662,"MEAN_ANOMALY":268.3729,"EPHEMERIS_TYPE":0,"CLASSIFICATION_TYPE":"U","NORAD_CAT_ID":56059,"ELEMENT_SET_NO":999,"REV_AT_EPOCH":14619,"BSTAR":0.00032311585,"MEAN_MOTION_DOT":1.46e-6,"MEAN_MOTION_DDOT":0},{"OBJECT_NAME":"ONEWEB-0559","OBJECT_ID":"2023-043Q","EPOCH":"2026-03-18T01:36:13.476960","MEAN_MOTION":13.21824923,"ECCENTRICITY":0.00019586,"INCLINATION":87.9163,"RA_OF_ASC_NODE":262.1384,"ARG_OF_PERICENTER":99.2086,"MEAN_ANOMALY":260.9269,"EPHEMERIS_TYPE":0,"CLASSIFICATION_TYPE":"U","NORAD_CAT_ID":56060,"ELEMENT_SET_NO":999,"REV_AT_EPOCH":14621,"BSTAR":6.0626258e-5,"MEAN_MOTION_DOT":3.8e-7,"MEAN_MOTION_DDOT":0},{"OBJECT_NAME":"ONEWEB-0566","OBJECT_ID":"2023-043R","EPOCH":"2026-03-18T01:26:44.123424","MEAN_MOTION":13.21827609,"ECCENTRICITY":0.00019985,"INCLINATION":87.916,"RA_OF_ASC_NODE":262.1391,"ARG_OF_PERICENTER":96.0123,"MEAN_ANOMALY":264.1239,"EPHEMERIS_TYPE":0,"CLASSIFICATION_TYPE":"U","NORAD_CAT_ID":56061,"ELEMENT_SET_NO":999,"REV_AT_EPOCH":14619,"BSTAR":3.8739606e-5,"MEAN_MOTION_DOT":2.9e-7,"MEAN_MOTION_DDOT":0},{"OBJECT_NAME":"ONEWEB-0568","OBJECT_ID":"2023-043S","EPOCH":"2026-03-17T23:11:51.260928","MEAN_MOTION":13.16596887,"ECCENTRICITY":0.00015119,"INCLINATION":87.9012,"RA_OF_ASC_NODE":246.9097,"ARG_OF_PERICENTER":88.9171,"MEAN_ANOMALY":271.2133,"EPHEMERIS_TYPE":0,"CLASSIFICATION_TYPE":"U","NORAD_CAT_ID":56062,"ELEMENT_SET_NO":999,"REV_AT_EPOCH":14697,"BSTAR":5.7893871e-5,"MEAN_MOTION_DOT":3.5e-7,"MEAN_MOTION_DDOT":0},{"OBJECT_NAME":"ONEWEB-0574","OBJECT_ID":"2023-043T","EPOCH":"2026-03-18T01:17:16.487520","MEAN_MOTION":13.21826428,"ECCENTRICITY":0.00014992,"INCLINATION":87.9173,"RA_OF_ASC_NODE":262.1343,"ARG_OF_PERICENTER":96.7957,"MEAN_ANOMALY":263.3348,"EPHEMERIS_TYPE":0,"CLASSIFICATION_TYPE":"U","NORAD_CAT_ID":56063,"ELEMENT_SET_NO":999,"REV_AT_EPOCH":14623,"BSTAR":1.9300089e-5,"MEAN_MOTION_DOT":2.1e-7,"MEAN_MOTION_DDOT":0},{"OBJECT_NAME":"ONEWEB-0575","OBJECT_ID":"2023-043U","EPOCH":"2026-03-18T00:52:11.218080","MEAN_MOTION":13.16594228,"ECCENTRICITY":0.00012243,"INCLINATION":87.9012,"RA_OF_ASC_NODE":246.8931,"ARG_OF_PERICENTER":98.1572,"MEAN_ANOMALY":261.9698,"EPHEMERIS_TYPE":0,"CLASSIFICATION_TYPE":"U","NORAD_CAT_ID":56064,"ELEMENT_SET_NO":999,"REV_AT_EPOCH":14697,"BSTAR":-0.00011980865,"MEAN_MOTION_DOT":-3.3e-7,"MEAN_MOTION_DDOT":0}]
